FLOCK 4H-33             
1 66736U 25276BY  26117.20680360  .00007829  00000+0  36279-3 0  9997
2 66736  97.4238 191.8718 0003834 109.1233 251.0418 15.20350037 22691
FLOCK 4H-34             
1 66737U 25276BZ  26117.17197061  .00007978  00000+0  37478-3 0  9992
2 66737  97.4253 191.7943 0004004 114.8370 245.3282 15.19870311 21934
FLOCK 4H-35             
1 66738U 25276CA  26117.09062983  .00006921  00000+0  32343-3 0  9991
2 66738  97.4213 191.6741 0003542 105.5060 254.6566 15.20101180 21969
FLOCK 4H-36             
1 66739U 25276CB  26117.18241786  .00007396  00000+0  34805-3 0  9994
2 66739  97.4262 191.7982 0004041 123.3033 236.8589 15.19832127 22682
