[{"OBJECT_NAME":"FLOCK 4H-33","OBJECT_ID":"2025-276BY","EPOCH":"2026-04-27T04:57:47.831040","MEAN_MOTION":15.20350037,"ECCENTRICITY":0.0003834,"INCLINATION":97.4238,"RA_OF_ASC_NODE":191.8718,"ARG_OF_PERICENTER":109.1233,"MEAN_ANOMALY":251.0418,"EPHEMERIS_TYPE":0,"CLASSIFICATION_TYPE":"U","NORAD_CAT_ID":66736,"ELEMENT_SET_NO":999,"REV_AT_EPOCH":2269,"BSTAR":0.00036279,"MEAN_MOTION_DOT":7.829e-5,"MEAN_MOTION_DDOT":0},{"OBJECT_NAME":"FLOCK 4H-34","OBJECT_ID":"2025-276BZ","EPOCH":"2026-04-27T04:07:38.260704","MEAN_MOTION":15.19870311,"ECCENTRICITY":0.0004004,"INCLINATION":97.4253,"RA_OF_ASC_NODE":191.7943,"ARG_OF_PERICENTER":114.837,"MEAN_ANOMALY":245.3282,"EPHEMERIS_TYPE":0,"CLASSIFICATION_TYPE":"U","NORAD_CAT_ID":66737,"ELEMENT_SET_NO":999,"REV_AT_EPOCH":2193,"BSTAR":0.00037478,"MEAN_MOTION_DOT":7.978e-5,"MEAN_MOTION_DDOT":0},{"OBJECT_NAME":"FLOCK 4H-35","OBJECT_ID":"2025-276CA","EPOCH":"2026-04-27T02:10:30.417312","MEAN_MOTION":15.2010118,"ECCENTRICITY":0.0003542,"INCLINATION":97.4213,"RA_OF_ASC_NODE":191.6741,"ARG_OF_PERICENTER":105.506,"MEAN_ANOMALY":254.6566,"EPHEMERIS_TYPE":0,"CLASSIFICATION_TYPE":"U","NORAD_CAT_ID":66738,"ELEMENT_SET_NO":999,"REV_AT_EPOCH":2196,"BSTAR":0.00032343,"MEAN_MOTION_DOT":6.921e-5,"MEAN_MOTION_DDOT":0},{"OBJECT_NAME":"FLOCK 4H-36","OBJECT_ID":"2025-276CB","EPOCH":"2026-04-27T04:22:40.903104","MEAN_MOTION":15.19832127,"ECCENTRICITY":0.0004041,"INCLINATION":97.4262,"RA_OF_ASC_NODE":191.7982,"ARG_OF_PERICENTER":123.3033,"MEAN_ANOMALY":236.8589,"EPHEMERIS_TYPE":0,"CLASSIFICATION_TYPE":"U","NORAD_CAT_ID":66739,"ELEMENT_SET_NO":999,"REV_AT_EPOCH":2268,"BSTAR":0.00034805,"MEAN_MOTION_DOT":7.396e-5,"MEAN_MOTION_DDOT":0}]
